[
  {
    "COMMENT": "GENERATED VIA SPACETRACK.ORG API",
    "ORIGINATOR": "18 SPCS",
    "NORAD_CAT_ID": "54754",
    "OBJECT_NAME": "SWOT",
    "OBJECT_TYPE": "PAYLOAD",
    "CLASSIFICATION_TYPE": "U",
    "INTLDES": "22173A",
    "EPOCH": "2023-04-01 04:48:18",
    "EPOCH_MICROSECONDS": "690912",
    "MEAN_MOTION": "14.09853507",
    "ECCENTRICITY": "0.0000857",
    "INCLINATION": "77.6072",
    "RA_OF_ASC_NODE": "180.9774",
    "ARG_OF_PERICENTER": "218.6123",
    "MEAN_ANOMALY": "141.4973",
    "EPHEMERIS_TYPE": "0",
    "ELEMENT_SET_NO": "999",
    "REV_AT_EPOCH": "1489",
    "BSTAR": "0.00018284",
    "MEAN_MOTION_DOT": "0.00000319",
    "MEAN_MOTION_DDOT": "0",
    "FILE": "3876884",
    "TLE_LINE0": "0 SWOT",
    "TLE_LINE1": "1 54754U 22173A   23091.20021633  .00000319  00000-0  18284-3 0  9991",
    "TLE_LINE2": "2 54754  77.6072 180.9774 0000857 218.6123 141.4973 14.09853507 14898",
    "OBJECT_ID": "2022-173A",
    "OBJECT_NUMBER": "54754",
    "SEMIMAJOR_AXIS": "7238.010",
    "PERIOD": "102.138",
    "APOGEE": "860.495",
    "PERIGEE": "859.255",
    "DECAYED": "0"
  },
  {
    "COMMENT": "GENERATED VIA SPACETRACK.ORG API",
    "ORIGINATOR": "18 SPCS",
    "NORAD_CAT_ID": "54754",
    "OBJECT_NAME": "SWOT",
    "OBJECT_TYPE": "PAYLOAD",
    "CLASSIFICATION_TYPE": "U",
    "INTLDES": "22173A",
    "EPOCH": "2023-04-01 13:19:15",
    "EPOCH_MICROSECONDS": "49920",
    "MEAN_MOTION": "14.09853448",
    "ECCENTRICITY": "0.0000886",
    "INCLINATION": "77.6071",
    "RA_OF_ASC_NODE": "180.4903",
    "ARG_OF_PERICENTER": "217.5167",
    "MEAN_ANOMALY": "142.5928",
    "EPHEMERIS_TYPE": "0",
    "ELEMENT_SET_NO": "999",
    "REV_AT_EPOCH": "1494",
    "BSTAR": "0.000072391",
    "MEAN_MOTION_DOT": "0.00000125",
    "MEAN_MOTION_DDOT": "0",
    "FILE": "3877270",
    "TLE_LINE0": "0 SWOT",
    "TLE_LINE1": "1 54754U 22173A   23091.55503530  .00000125  00000-0  72391-4 0  9995",
    "TLE_LINE2": "2 54754  77.6071 180.4903 0000886 217.5167 142.5928 14.09853448 14946",
    "OBJECT_ID": "2022-173A",
    "OBJECT_NUMBER": "54754",
    "SEMIMAJOR_AXIS": "7238.010",
    "PERIOD": "102.138",
    "APOGEE": "860.517",
    "PERIGEE": "859.234",
    "DECAYED": "0"
  },
  {
    "COMMENT": "GENERATED VIA SPACETRACK.ORG API",
    "ORIGINATOR": "18 SPCS",
    "NORAD_CAT_ID": "54754",
    "OBJECT_NAME": "SWOT",
    "OBJECT_TYPE": "PAYLOAD",
    "CLASSIFICATION_TYPE": "U",
    "INTLDES": "22173A",
    "EPOCH": "2023-04-01 16:43:37",
    "EPOCH_MICROSECONDS": "584192",
    "MEAN_MOTION": "14.09853592",
    "ECCENTRICITY": "0.0000915",
    "INCLINATION": "77.607",
    "RA_OF_ASC_NODE": "180.2952",
    "ARG_OF_PERICENTER": "215.6496",
    "MEAN_ANOMALY": "144.46",
    "EPHEMERIS_TYPE": "0",
    "ELEMENT_SET_NO": "999",
    "REV_AT_EPOCH": "1496",
    "BSTAR": "0.000072484",
    "MEAN_MOTION_DOT": "0.00000125",
    "MEAN_MOTION_DDOT": "0",
    "FILE": "3877516",
    "TLE_LINE0": "0 SWOT",
    "TLE_LINE1": "1 54754U 22173A   23091.69696278  .00000125  00000-0  72484-4 0  9995",
    "TLE_LINE2": "2 54754  77.6070 180.2952 0000915 215.6496 144.4600 14.09853592 14964",
    "OBJECT_ID": "2022-173A",
    "OBJECT_NUMBER": "54754",
    "SEMIMAJOR_AXIS": "7238.010",
    "PERIOD": "102.138",
    "APOGEE": "860.537",
    "PERIGEE": "859.212",
    "DECAYED": "0"
  },
  {
    "COMMENT": "GENERATED VIA SPACETRACK.ORG API",
    "ORIGINATOR": "18 SPCS",
    "NORAD_CAT_ID": "54754",
    "OBJECT_NAME": "SWOT",
    "OBJECT_TYPE": "PAYLOAD",
    "CLASSIFICATION_TYPE": "U",
    "INTLDES": "22173A",
    "EPOCH": "2023-04-02 06:21:07",
    "EPOCH_MICROSECONDS": "743744",
    "MEAN_MOTION": "14.09853822",
    "ECCENTRICITY": "0.0000969",
    "INCLINATION": "77.6067",
    "RA_OF_ASC_NODE": "179.516",
    "ARG_OF_PERICENTER": "215.785",
    "MEAN_ANOMALY": "144.3242",
    "EPHEMERIS_TYPE": "0",
    "ELEMENT_SET_NO": "999",
    "REV_AT_EPOCH": "1504",
    "BSTAR": "0.00007231",
    "MEAN_MOTION_DOT": "0.00000125",
    "MEAN_MOTION_DDOT": "0",
    "FILE": "3877796",
    "TLE_LINE0": "0 SWOT",
    "TLE_LINE1": "1 54754U 22173A   23092.26467296  .00000125  00000-0  72310-4 0  9993",
    "TLE_LINE2": "2 54754  77.6067 179.5160 0000969 215.7850 144.3242 14.09853822 15043",
    "OBJECT_ID": "2022-173A",
    "OBJECT_NUMBER": "54754",
    "SEMIMAJOR_AXIS": "7238.009",
    "PERIOD": "102.138",
    "APOGEE": "860.575",
    "PERIGEE": "859.173",
    "DECAYED": "0"
  },
  {
    "COMMENT": "GENERATED VIA SPACETRACK.ORG API",
    "ORIGINATOR": "18 SPCS",
    "NORAD_CAT_ID": "54754",
    "OBJECT_NAME": "SWOT",
    "OBJECT_TYPE": "PAYLOAD",
    "CLASSIFICATION_TYPE": "U",
    "INTLDES": "22173A",
    "EPOCH": "2023-04-02 13:09:52",
    "EPOCH_MICROSECONDS": "823520",
    "MEAN_MOTION": "14.09853904",
    "ECCENTRICITY": "0.0001002",
    "INCLINATION": "77.6066",
    "RA_OF_ASC_NODE": "179.1263",
    "ARG_OF_PERICENTER": "215.1875",
    "MEAN_ANOMALY": "144.9216",
    "EPHEMERIS_TYPE": "0",
    "ELEMENT_SET_NO": "999",
    "REV_AT_EPOCH": "1508",
    "BSTAR": "0.000074284",
    "MEAN_MOTION_DOT": "0.00000128",
    "MEAN_MOTION_DDOT": "0",
    "FILE": "3878126",
    "TLE_LINE0": "0 SWOT",
    "TLE_LINE1": "1 54754U 22173A   23092.54852805  .00000128  00000-0  74284-4 0  9993",
    "TLE_LINE2": "2 54754  77.6066 179.1263 0001002 215.1875 144.9216 14.09853904 15084",
    "OBJECT_ID": "2022-173A",
    "OBJECT_NUMBER": "54754",
    "SEMIMAJOR_AXIS": "7238.009",
    "PERIOD": "102.138",
    "APOGEE": "860.599",
    "PERIGEE": "859.148",
    "DECAYED": "0"
  },
  {
    "COMMENT": "GENERATED VIA SPACETRACK.ORG API",
    "ORIGINATOR": "18 SPCS",
    "NORAD_CAT_ID": "54754",
    "OBJECT_NAME": "SWOT",
    "OBJECT_TYPE": "PAYLOAD",
    "CLASSIFICATION_TYPE": "U",
    "INTLDES": "22173A",
    "EPOCH": "2023-04-02 19:58:37",
    "EPOCH_MICROSECONDS": "891200",
    "MEAN_MOTION": "14.09854082",
    "ECCENTRICITY": "0.0001015",
    "INCLINATION": "77.6065",
    "RA_OF_ASC_NODE": "178.7366",
    "ARG_OF_PERICENTER": "214.2719",
    "MEAN_ANOMALY": "145.8373",
    "EPHEMERIS_TYPE": "0",
    "ELEMENT_SET_NO": "999",
    "REV_AT_EPOCH": "1512",
    "BSTAR": "0.000074035",
    "MEAN_MOTION_DOT": "0.00000128",
    "MEAN_MOTION_DDOT": "0",
    "FILE": "3878419",
    "TLE_LINE0": "0 SWOT",
    "TLE_LINE1": "1 54754U 22173A   23092.83238300  .00000128  00000-0  74035-4 0  9997",
    "TLE_LINE2": "2 54754  77.6065 178.7366 0001015 214.2719 145.8373 14.09854082 15120",
    "OBJECT_ID": "2022-173A",
    "OBJECT_NUMBER": "54754",
    "SEMIMAJOR_AXIS": "7238.008",
    "PERIOD": "102.138",
    "APOGEE": "860.608",
    "PERIGEE": "859.138",
    "DECAYED": "0"
  },
  {
    "COMMENT": "GENERATED VIA SPACETRACK.ORG API",
    "ORIGINATOR": "18 SPCS",
    "NORAD_CAT_ID": "54754",
    "OBJECT_NAME": "SWOT",
    "OBJECT_TYPE": "PAYLOAD",
    "CLASSIFICATION_TYPE": "U",
    "INTLDES": "22173A",
    "EPOCH": "2023-04-03 09:36:08",
    "EPOCH_MICROSECONDS": "30880",
    "MEAN_MOTION": "14.09854726",
    "ECCENTRICITY": "0.0001002",
    "INCLINATION": "77.6065",
    "RA_OF_ASC_NODE": "177.9579",
    "ARG_OF_PERICENTER": "214.0035",
    "MEAN_ANOMALY": "146.1058",
    "EPHEMERIS_TYPE": "0",
    "ELEMENT_SET_NO": "999",
    "REV_AT_EPOCH": "1520",
    "BSTAR": "0.00015777",
    "MEAN_MOTION_DOT": "0.00000275",
    "MEAN_MOTION_DDOT": "0",
    "FILE": "3878936",
    "TLE_LINE0": "0 SWOT",
    "TLE_LINE1": "1 54754U 22173A   23093.40009295  .00000275  00000-0  15777-3 0  9990",
    "TLE_LINE2": "2 54754  77.6065 177.9579 0001002 214.0035 146.1058 14.09854726 15200",
    "OBJECT_ID": "2022-173A",
    "OBJECT_NUMBER": "54754",
    "SEMIMAJOR_AXIS": "7238.006",
    "PERIOD": "102.138",
    "APOGEE": "860.596",
    "PERIGEE": "859.146",
    "DECAYED": "0"
  },
  {
    "COMMENT": "GENERATED VIA SPACETRACK.ORG API",
    "ORIGINATOR": "18 SPCS",
    "NORAD_CAT_ID": "54754",
    "OBJECT_NAME": "SWOT",
    "OBJECT_TYPE": "PAYLOAD",
    "CLASSIFICATION_TYPE": "U",
    "INTLDES": "22173A",
    "EPOCH": "2023-04-03 09:36:08",
    "EPOCH_MICROSECONDS": "30880",
    "MEAN_MOTION": "14.09854726",
    "ECCENTRICITY": "0.0001002",
    "INCLINATION": "77.6065",
    "RA_OF_ASC_NODE": "177.9579",
    "ARG_OF_PERICENTER": "214.0035",
    "MEAN_ANOMALY": "146.1058",
    "EPHEMERIS_TYPE": "0",
    "ELEMENT_SET_NO": "999",
    "REV_AT_EPOCH": "1520",
    "BSTAR": "0.00015777",
    "MEAN_MOTION_DOT": "0.00000275",
    "MEAN_MOTION_DDOT": "0",
    "FILE": "3879059",
    "TLE_LINE0": "0 SWOT",
    "TLE_LINE1": "1 54754U 22173A   23093.40009295  .00000275  00000-0  15777-3 0  9990",
    "TLE_LINE2": "2 54754  77.6065 177.9579 0001002 214.0035 146.1058 14.09854726 15200",
    "OBJECT_ID": "2022-173A",
    "OBJECT_NUMBER": "54754",
    "SEMIMAJOR_AXIS": "7238.006",
    "PERIOD": "102.138",
    "APOGEE": "860.596",
    "PERIGEE": "859.146",
    "DECAYED": "0"
  },
  {
    "COMMENT": "GENERATED VIA SPACETRACK.ORG API",
    "ORIGINATOR": "18 SPCS",
    "NORAD_CAT_ID": "54754",
    "OBJECT_NAME": "SWOT",
    "OBJECT_TYPE": "PAYLOAD",
    "CLASSIFICATION_TYPE": "U",
    "INTLDES": "22173A",
    "EPOCH": "2023-04-04 09:26:45",
    "EPOCH_MICROSECONDS": "753504",
    "MEAN_MOTION": "14.09855336",
    "ECCENTRICITY": "0.0000991",
    "INCLINATION": "77.6065",
    "RA_OF_ASC_NODE": "176.5949",
    "ARG_OF_PERICENTER": "213.7404",
    "MEAN_ANOMALY": "146.369",
    "EPHEMERIS_TYPE": "0",
    "ELEMENT_SET_NO": "999",
    "REV_AT_EPOCH": "1534",
    "BSTAR": "0.00016384",
    "MEAN_MOTION_DOT": "0.00000285",
    "MEAN_MOTION_DDOT": "0",
    "FILE": "3879974",
    "TLE_LINE0": "0 SWOT",
    "TLE_LINE1": "1 54754U 22173A   23094.39358511  .00000285  00000-0  16384-3 0  9993",
    "TLE_LINE2": "2 54754  77.6065 176.5949 0000991 213.7404 146.3690 14.09855336 15345",
    "OBJECT_ID": "2022-173A",
    "OBJECT_NUMBER": "54754",
    "SEMIMAJOR_AXIS": "7238.004",
    "PERIOD": "102.138",
    "APOGEE": "860.586",
    "PERIGEE": "859.152",
    "DECAYED": "0"
  }
]